      2.10          N: GNSS NAV DATA                        RINEX VERSION / TYPE
fic2rin                                 12/09/2022 00:17:35 PGM / RUN BY / DATE
                                                            END OF HEADER
15 22 12  8  2  0  0.0 -.596651807427D-05  .318323145621D-11  .000000000000D+00
     .390000000000D+02  .165000000000D+02  .548094258897D-08  .127763056756D+01
     .758096575737D-06  .147351197666D-01  .691600143909D-05  .515364196396D+04
     .352800000000D+06 -.309199094772D-06  .105783346351D+01 -.596046447754D-07
     .931063590764D+00  .235937500000D+03  .116569992285D+01 -.853892710916D-08
     .415374444870D-09  .100000000000D+01  .223900000000D+04  .000000000000D+00
     .240000000000D+01  .000000000000D+00 -.107102096081D-07  .390000000000D+02
     .345600000000D+06  .400000000000D+01
9  22 12  8  2  0  0.0 -.256963539869D-03  .602540239925D-11  .000000000000D+00
     .390000000000D+02  .144687500000D+02  .485663086960D-08  .261974073287D+01
     .886619091034D-06  .264533329755D-02  .605732202530D-05  .515370230103D+04
     .352800000000D+06  .167638063431D-07  .117175399281D+01  .186264514923D-07
     .954846713724D+00  .258843750000D+03  .193813197120D+01 -.798854704076D-08
     .396445084958D-09  .100000000000D+01  .223900000000D+04  .000000000000D+00
     .240000000000D+01  .000000000000D+00  .931322574615D-09  .390000000000D+02
     .345600000000D+06  .400000000000D+01
10 22 12  8  2  0  0.0 -.151493586600D-04 -.170530256582D-11  .000000000000D+00
     .105000000000D+03 -.747812500000D+02  .371408327791D-08 -.201501815147D+01
    -.397302210331D-05  .827033049427D-02  .112019479275D-04  .515368918037D+04
     .352800000000D+06 -.260770320892D-07  .143340694007D+00 -.141561031342D-06
     .976702584017D+00  .171187500000D+03 -.248738408569D+01 -.733209112531D-08
     .391444876679D-09  .100000000000D+01  .223900000000D+04  .000000000000D+00
     .240000000000D+01  .000000000000D+00  .232830643654D-08  .105000000000D+03
     .345600000000D+06  .400000000000D+01
21 22 12  8  2  0  0.0  .154364854097D-03 -.909494701773D-12  .000000000000D+00
     .370000000000D+02 -.122500000000D+03  .462019244956D-08  .223108600962D+01
    -.611320137978D-05  .245904136682D-01  .133551657200D-05  .515367879295D+04
     .352800000000D+06  .348314642906D-06 -.984654111390D+00  .171363353729D-06
     .961123154546D+00  .351093750000D+03 -.859699730219D+00 -.806390732268D-08
    -.557166065346D-09  .100000000000D+01  .223900000000D+04  .000000000000D+00
     .240000000000D+01  .000000000000D+00 -.102445483208D-07  .370000000000D+02
     .345600000000D+06  .400000000000D+01
14 22 12  8  2  0  0.0 -.717295333743D-04  .602540239925D-11  .000000000000D+00
     .121000000000D+03  .113250000000D+03  .436589614281D-08 -.135123130592D+01
     .582076609135D-05  .245053414255D-02  .104736536741D-04  .515366807556D+04
     .352800000000D+06 -.186264514923D-07 -.296154420116D+01 -.298023223877D-07
     .950940845337D+00  .171843750000D+03 -.305799276629D+01 -.783675500373D-08
    -.700029159024D-10  .100000000000D+01  .223900000000D+04  .000000000000D+00
     .240000000000D+01  .000000000000D+00 -.791624188423D-08  .121000000000D+03
     .345600000000D+06  .400000000000D+01
24 22 12  8  2  0  0.0  .257492065430D-04 -.170530256582D-10  .000000000000D+00
     .880000000000D+02 -.167500000000D+02  .540486799159D-08  .305298183592D+00
    -.843778252602D-06  .135421180166D-01  .667572021484D-05  .515365982628D+04
     .352800000000D+06 -.108033418655D-06  .215610950067D+01  .217929482460D-06
     .933764172649D+00  .238843750000D+03  .868419947897D+00 -.850428280894D-08
    -.513949979508D-09  .100000000000D+01  .223900000000D+04  .000000000000D+00
     .240000000000D+01  .000000000000D+00  .279396772385D-08  .880000000000D+02
     .345600000000D+06  .400000000000D+01
27 22 12  8  2  0  0.0  .159013550729D-03 -.101181285572D-10  .000000000000D+00
     .620000000000D+02  .900937500000D+02  .450411618595D-08  .226888991793D+01
     .456720590591D-05  .108753168024D-01  .977888703346D-06  .515366424561D+04
     .352800000000D+06 -.208616256714D-06 -.195138707547D+01 -.212341547012D-06
     .969748036778D+00  .366000000000D+03  .684735601301D+00 -.822498546080D-08
     .261439461432D-09  .100000000000D+01  .223900000000D+04  .000000000000D+00
     .240000000000D+01  .000000000000D+00  .139698386192D-08  .620000000000D+02
     .345600000000D+06  .400000000000D+01
31 22 12  8  2  0  0.0 -.202584546059D-03 -.113686837722D-11  .000000000000D+00
     .132000000000D+03 -.881250000000D+01  .473984029052D-08 -.116399588807D+01
    -.469386577606D-06  .107612494612D-01  .713579356670D-05  .515361867142D+04
     .352800000000D+06  .217929482460D-06  .226314047871D+01 -.745058059692D-07
     .954452647481D+00  .231593750000D+03  .477236801891D+00 -.795211695188D-08
    -.431803700643D-09  .100000000000D+01  .223900000000D+04  .000000000000D+00
     .240000000000D+01  .000000000000D+00 -.135041773319D-07  .132000000000D+03
     .345600000000D+06  .400000000000D+01
20 22 12  8  2  0  0.0  .465036369860D-03 -.250111042988D-11  .000000000000D+00
     .690000000000D+02 -.924687500000D+02  .452947438507D-08  .102143557016D+01
    -.472739338875D-05  .469839258585D-02  .996701419353D-05  .515370298958D+04
     .352800000000D+06  .149011611938D-07 -.176078882735D-01  .139698386192D-06
     .946411605614D+00  .182343750000D+03 -.300403723883D+01 -.788604277105D-08
     .126433837905D-09  .100000000000D+01  .223900000000D+04  .000000000000D+00
     .240000000000D+01  .000000000000D+00 -.838190317154D-08  .690000000000D+02
     .345600000000D+06  .400000000000D+01
13 22 12  8  2  0  0.0  .438118819147D-03  .659383658785D-11  .000000000000D+00
     .980000000000D+02  .129375000000D+02  .464055044041D-08  .176684724803D+01
     .599771738052D-06  .670958240516D-02  .554136931896D-05  .515366244698D+04
     .352800000000D+06 -.158324837685D-06  .132937883838D+01 -.707805156708D-07
     .968759329446D+00  .277312500000D+03  .951421549978D+00 -.798140388608D-08
     .304655547269D-09  .100000000000D+01  .223900000000D+04  .000000000000D+00
     .340000000000D+01  .000000000000D+00 -.116415321827D-07  .980000000000D+02
     .345600000000D+06  .400000000000D+01
19 22 12  8  2  0  0.0  .247569289058D-03  .511590769747D-11  .000000000000D+00
     .800000000000D+02  .682187500000D+02  .439054002647D-08 -.193529345809D+01
     .372901558876D-05  .902042258531D-02  .888481736183D-06  .515373940849D+04
     .352800000000D+06 -.212341547012D-06 -.184216078258D+01  .162050127983D-06
     .975251103032D+00  .372500000000D+03  .222082096654D+01 -.823534303509D-08
     .163935399996D-09  .100000000000D+01  .223900000000D+04  .000000000000D+00
     .240000000000D+01  .000000000000D+00 -.153668224812D-07  .800000000000D+02
     .345600000000D+06  .400000000000D+01
17 22 12  8  2  0  0.0  .684152357280D-03  .306954461848D-11  .000000000000D+00
     .680000000000D+02  .850937500000D+02  .426446334630D-08  .225095863552D+01
     .425614416599D-05  .138829186326D-01  .234693288803D-06  .515367619896D+04
     .352800000000D+06  .126659870148D-06 -.188685452302D+01 -.100582838058D-06
     .976312970897D+00  .377156250000D+03 -.144879044823D+01 -.803604901941D-08
     .832177520677D-10  .100000000000D+01  .223900000000D+04  .000000000000D+00
     .240000000000D+01  .000000000000D+00 -.111758708954D-07  .680000000000D+02
     .345600000000D+06  .400000000000D+01
22 22 12  8  2  0  0.0  .380185898393D-03  .784439180279D-11  .000000000000D+00
     .440000000000D+02  .117187500000D+02  .470876756764D-08  .200751668792D+01
     .448897480965D-06  .135930111865D-01  .562518835068D-05  .515375137138D+04
     .352800000000D+06  .707805156708D-07  .127557385835D+01 -.311061739922D-06
     .961582310403D+00  .269281250000D+03 -.184202952372D+01 -.786211320286D-08
     .366443835285D-09  .100000000000D+01  .223900000000D+04  .000000000000D+00
     .240000000000D+01  .000000000000D+00 -.838190317154D-08  .440000000000D+02
     .345600000000D+06  .400000000000D+01
23 22 12  8  2  0  0.0 -.251922756433D-06  .568434188608D-12  .000000000000D+00
     .200000000000D+01 -.689062500000D+02  .393480675764D-08 -.815237654561D+00
    -.366754829884D-05  .291295244824D-02  .110045075417D-04  .515364088821D+04
     .352800000000D+06  .670552253723D-07  .117006154142D+00 -.152736902237D-06
     .971814453916D+00  .176593750000D+03  .310089955522D+01 -.753424240287D-08
     .235366946835D-09  .100000000000D+01  .223900000000D+04  .000000000000D+00
     .240000000000D+01  .000000000000D+00 -.838190317154D-08  .770000000000D+03
     .345600000000D+06  .400000000000D+01
18 22 12  8  2  0  0.0 -.506346113980D-04 -.144382283906D-10  .000000000000D+00
     .191000000000D+03 -.119750000000D+03  .426089176896D-08  .164858293753D+00
    -.638887286186D-05  .296256842557D-02  .370666384697D-05  .515371088600D+04
     .352800000000D+06  .186264514923D-08 -.882211536406D+00  .186264514923D-08
     .972939755372D+00  .312375000000D+03 -.311735255306D+01 -.810069456930D-08
    -.338585532018D-09  .100000000000D+01  .223900000000D+04  .000000000000D+00
     .240000000000D+01  .000000000000D+00 -.838190317154D-08  .447000000000D+03
     .345600000000D+06  .400000000000D+01
11 22 12  8  2  0  0.0 -.528511591256D-04 -.704858393874D-11  .000000000000D+00
     .209000000000D+03 -.119062500000D+03  .445768568050D-08  .161004738292D+01
    -.619888305664D-05  .810184516013D-03  .356137752533D-05  .515367714882D+04
     .352800000000D+06  .149011611938D-07 -.848783558396D+00  .111758708954D-07
     .964417593395D+00  .313843750000D+03 -.279539079335D+01 -.816355433052D-08
    -.290369237901D-09  .100000000000D+01  .223900000000D+04  .000000000000D+00
     .240000000000D+01  .000000000000D+00 -.884756445885D-08  .977000000000D+03
     .345600000000D+06  .400000000000D+01
